{
  "norad_id": 52639,
  "name": "STARLINK-3968",
  "history": [
    {
      "epoch": "2026-03-28T13:02:32.593056",
      "apogee_km": 540.6455902851867,
      "perigee_km": 538.8297865369732,
      "latitude_deg": 46.695794574378176,
      "longitude_deg": -143.93045216007158,
      "semi_major_axis_km": 6917.87468841108,
      "eccentricity": 0.00013124,
      "inclination_deg": 53.2173,
      "raan_deg": 174.4847,
      "arg_perigee_deg": 83.7587,
      "mean_anomaly_deg": 276.3555,
      "mean_motion_rev_day": 15.08841865
    }
  ]
}